KORSAT-2                
1 62377U 24247A   26068.41070335  .00005163  00000+0  43498-3 0  9994
2 62377  45.4085 225.0391 0009773  57.7708 302.4117 14.99271316 66592
STARLINK-34088          
1 64025U 25102D   26068.52428599  .00000708  00000+0  67169-4 0  9990
2 64025  70.0003 115.0200 0003540 271.8300  88.2454 14.98327665 45934
